CAS-2T & KS-1Q          
1 41847U 16066G   20324.15519951  .00000122  00000-0  27932-4 0  9992
2 41847  98.6341  16.0729 0366428 127.7407 235.7586 14.38112863211657
NAYIF-1 (EO-88)         
1 42017U 17008BX  20324.42591345  .00002428  00000-0  94306-4 0  9996
2 42017  97.3435  29.6244 0007501 125.8331 234.3606 15.27010551209192
ZHUHAI-1 02 (CAS-4B)    
1 42759U 17034B   20324.16257907  .00000602  00000-0  49832-4 0  9998
2 42759  43.0186 256.9671 0011435 286.5952 208.5608 15.09954864189354
ZHUHAI-1 01 (CAS-4A)    
1 42761U 17034D   20324.16547002  .00000573  00000-0  48007-4 0  9999
2 42761  43.0181 256.1494 0011847 287.5253 210.5715 15.10034230189359
MAX VALIER SAT          
1 42778U 17036P   20324.09601219  .00001396  00000-0  62333-4 0  9994
2 42778  97.2859  13.3116 0011796 190.2164 169.8835 15.22928660189269
RADFXSAT (FOX-1B)       
1 43017U 17073E   20324.31594093  .00000890  00000-0  74992-4 0  9990
2 43017  97.7159 230.5198 0254812 265.6977  91.5083 14.79151937162054
FOX-1D (AO-92)          
1 43137U 18004AC  20324.14928944  .00001635  00000-0  69471-4 0  9999
2 43137  97.4313  34.1604 0007887 224.6803 135.3799 15.24468308158608
DIWATA-2B               
1 43678U 18084H   20324.36466465  .00000264  00000-0  31960-4 0  9995
2 43678  97.9019  82.9228 0010728  32.4348 327.7556 14.91671745112114
ES'HAIL 2               
1 43700U 18090A   20323.90744007  .00000140  00000-0  00000-0 0  9998
2 43700   0.0141 289.0453 0001512 323.2972 158.5590  1.00272987  7253
FOX-1CLIFF (AO-95)      
1 43770U 18099N   20324.45044745  .00000122  00000-0  16334-4 0  9998
2 43770  97.6911  33.0091 0015430  43.9622 316.2823 14.95097259107072
ITASAT 1                
1 43786U 18099AE  20323.67690265  .00000770  00000-0  74689-4 0  9998
2 43786  97.6929  32.7801 0016001  40.5500 319.6910 14.95421280106984
JY1SAT (JO-97)          
1 43803U 18099AX  20323.73917843  .00000797  00000-0  76755-4 0  9994
2 43803  97.6889  32.6260 0015897  40.5628 319.6774 14.95619225106997
PSAT2 (NO-104)          
1 44354U 19036R   20323.64905664  .00021797  00000-0  31163-3 0  9992
2 44354  28.5296  85.8156 0351485 161.1864 200.2082 15.06748197 77073
BRICSAT2 (NO-103)       
1 44355U 19036S   20323.96222341  .00043522  00000-0  57119-3 0  9991
2 44355  28.5305  64.8521 0317641 195.2457 163.8373 15.15391974 77300
JAISAT-1                
1 44419U 19038F   20323.85972809  .00001589  00000-0  93176-4 0  9994
2 44419  97.5599 283.8375 0020426 322.4436  37.5367 15.13085145 75941
DUCHIFAT-3              
1 44854U 19089C   20324.15293766  .00000644  00000-0  58264-4 0  9995
2 44854  36.9672 264.0344 0009094 240.0844 119.8995 14.99201086 51522
RS-44 & BREEZE-KM R/B   
1 44909U 19096E   20324.08142299  .00000029  00000-0  77181-4 0  9996
2 44909  82.5224 252.5567 0216489 224.8162 133.5277 12.79708007 41967
ORBITAL FACTORY 2 (OF-2)
1 45113U 19071C   20323.59254963  .00004090  00000-0  13328-3 0  9998
2 45113  51.6430 338.6243 0012091 252.7526 107.2133 15.34066213 44787
HUSKYSAT-1              
1 45119U 19071J   20324.07242060  .00002600  00000-0  88473-4 0  9992
2 45119  51.6426 335.8283 0011343 250.9616 109.0138 15.34231266 44855
SALSAT                  
1 46495U 20068K   20323.80159856  .00000166  00000-0  16754-4 0  9996
2 46495  97.6735 256.8194 0019117  65.9260 294.3963 15.03256164  7689
